{
  "type": "FeatureCollection",
  "features": [
    {
      "type": "Feature",
      "properties": {
        "norad_id": 43260,
        "name": "GAOFEN-1 03",
        "group": "resource",
        "lat": 33.228332816705766,
        "lon": 35.306958347766916,
        "alt_km": 637.6856426805853,
        "timestamp": "2025-12-08T23:34:03.627185+00:00",
        "meta_object_name": "GAOFEN-1 03",
        "meta_object_id": "2018-031B",
        "meta_epoch": "2025-12-08T15:17:00.096288",
        "meta_mean_motion": 14.76425012,
        "meta_eccentricity": 0.00022663,
        "meta_inclination": 98.0805,
        "meta_ra_of_asc_node": 40.3018,
        "meta_arg_of_pericenter": 339.8149,
        "meta_mean_anomaly": 20.297,
        "meta_ephemeris_type": 0,
        "meta_classification_type": "U",
        "meta_norad_cat_id": 43260,
        "meta_element_set_no": 999,
        "meta_rev_at_epoch": 41457,
        "meta_bstar": 0.00027889197,
        "meta_mean_motion_dot": 1.887e-05,
        "meta_mean_motion_ddot": 0,
        "tle_line1": "1 43260U 18031B   25342.63680667  .00001887  00000+0  27889-3 0  9996",
        "tle_line2": "2 43260  98.0805  40.3018 0002266 339.8149  20.2970 14.76425012414579"
      },
      "geometry": {
        "type": "Point",
        "coordinates": [
          35.306958347766916,
          33.228332816705766
        ]
      }
    },
    {
      "type": "Feature",
      "properties": {
        "norad_id": 43262,
        "name": "GAOFEN-1 04",
        "group": "resource",
        "lat": 16.820114222231886,
        "lon": -136.72229869548647,
        "alt_km": 641.3682443566213,
        "timestamp": "2025-12-08T23:34:03.627195+00:00",
        "meta_object_name": "GAOFEN-1 04",
        "meta_object_id": "2018-031D",
        "meta_epoch": "2025-12-08T14:41:59.218080",
        "meta_mean_motion": 14.76438122,
        "meta_eccentricity": 0.00011565,
        "meta_inclination": 98.0814,
        "meta_ra_of_asc_node": 40.4463,
        "meta_arg_of_pericenter": 59.8972,
        "meta_mean_anomaly": 300.2352,
        "meta_ephemeris_type": 0,
        "meta_classification_type": "U",
        "meta_norad_cat_id": 43262,
        "meta_element_set_no": 999,
        "meta_rev_at_epoch": 41456,
        "meta_bstar": 0.00027942001,
        "meta_mean_motion_dot": 1.892e-05,
        "meta_mean_motion_ddot": 0,
        "tle_line1": "1 43262U 18031D   25342.61249095  .00001892  00000+0  27942-3 0  9998",
        "tle_line2": "2 43262  98.0814  40.4463 0001156  59.8972 300.2352 14.76438122414566"
      },
      "geometry": {
        "type": "Point",
        "coordinates": [
          -136.72229869548647,
          16.820114222231886
        ]
      }
    },
    {
      "type": "Feature",
      "properties": {
        "norad_id": 43437,
        "name": "SENTINEL-3B",
        "group": "resource",
        "lat": -76.20443039013871,
        "lon": 86.4119963078239,
        "alt_km": 811.0497241378671,
        "timestamp": "2025-12-08T23:34:03.627206+00:00",
        "meta_object_name": "SENTINEL-3B",
        "meta_object_id": "2018-039A",
        "meta_epoch": "2025-12-08T15:31:22.485792",
        "meta_mean_motion": 14.26740797,
        "meta_eccentricity": 0.0001534,
        "meta_inclination": 98.627,
        "meta_ra_of_asc_node": 47.8905,
        "meta_arg_of_pericenter": 106.9432,
        "meta_mean_anomaly": 253.1917,
        "meta_ephemeris_type": 0,
        "meta_classification_type": "U",
        "meta_norad_cat_id": 43437,
        "meta_element_set_no": 999,
        "meta_rev_at_epoch": 39695,
        "meta_bstar": 0.00015029362,
        "meta_mean_motion_dot": 3.2e-06,
        "meta_mean_motion_ddot": 0,
        "tle_line1": "1 43437U 18039A   25342.64678803  .00000320  00000+0  15029-3 0  9994",
        "tle_line2": "2 43437  98.6270  47.8905 0001534 106.9432 253.1917 14.26740797396953"
      },
      "geometry": {
        "type": "Point",
        "coordinates": [
          86.4119963078239,
          -76.20443039013871
        ]
      }
    },
    {
      "type": "Feature",
      "properties": {
        "norad_id": 43461,
        "name": "GAOFEN-5 01",
        "group": "resource",
        "lat": 4.695007267299127,
        "lon": 126.58168305749278,
        "alt_km": 695.0959929675928,
        "timestamp": "2025-12-08T23:34:03.627216+00:00",
        "meta_object_name": "GAOFEN-5 01",
        "meta_object_id": "2018-043A",
        "meta_epoch": "2025-12-08T11:15:28.112832",
        "meta_mean_motion": 14.60403389,
        "meta_eccentricity": 0.00012489,
        "meta_inclination": 98.4319,
        "meta_ra_of_asc_node": 305.3619,
        "meta_arg_of_pericenter": 355.982,
        "meta_mean_anomaly": 4.1369,
        "meta_ephemeris_type": 0,
        "meta_classification_type": "U",
        "meta_norad_cat_id": 43461,
        "meta_element_set_no": 999,
        "meta_rev_at_epoch": 40385,
        "meta_bstar": 0.0002228231,
        "meta_mean_motion_dot": 1.03e-05,
        "meta_mean_motion_ddot": 0,
        "tle_line1": "1 43461U 18043A   25342.46907538  .00001030  00000+0  22282-3 0  9994",
        "tle_line2": "2 43461  98.4319 305.3619 0001248 355.9820   4.1369 14.60403389403859"
      },
      "geometry": {
        "type": "Point",
        "coordinates": [
          126.58168305749278,
          4.695007267299127
        ]
      }
    },
    {
      "type": "Feature",
      "properties": {
        "norad_id": 43484,
        "name": "GAOFEN-6",
        "group": "resource",
        "lat": -47.06796842961685,
        "lon": 55.852159788970205,
        "alt_km": 652.0137644067818,
        "timestamp": "2025-12-08T23:34:03.627227+00:00",
        "meta_object_name": "GAOFEN-6",
        "meta_object_id": "2018-048A",
        "meta_epoch": "2025-12-08T14:01:29.320896",
        "meta_mean_motion": 14.76555847,
        "meta_eccentricity": 0.00132803,
        "meta_inclination": 97.8037,
        "meta_ra_of_asc_node": 46.9907,
        "meta_arg_of_pericenter": 76.0891,
        "meta_mean_anomaly": 284.1796,
        "meta_ephemeris_type": 0,
        "meta_classification_type": "U",
        "meta_norad_cat_id": 43484,
        "meta_element_set_no": 999,
        "meta_rev_at_epoch": 40526,
        "meta_bstar": 0.00024538511,
        "meta_mean_motion_dot": 1.664e-05,
        "meta_mean_motion_ddot": 0,
        "tle_line1": "1 43484U 18048A   25342.58436714  .00001664  00000+0  24539-3 0  9990",
        "tle_line2": "2 43484  97.8037  46.9907 0013280  76.0891 284.1796 14.76555847405265"
      },
      "geometry": {
        "type": "Point",
        "coordinates": [
          55.852159788970205,
          -47.06796842961685
        ]
      }
    },
    {
      "type": "Feature",
      "properties": {
        "norad_id": 43585,
        "name": "GAOFEN-11 01",
        "group": "resource",
        "lat": -38.704188980930546,
        "lon": -139.82983381189433,
        "alt_km": 427.1884817668388,
        "timestamp": "2025-12-08T23:34:03.627237+00:00",
        "meta_object_name": "GAOFEN-11 01",
        "meta_object_id": "2018-063A",
        "meta_epoch": "2025-12-08T14:52:23.310336",
        "meta_mean_motion": 15.49044738,
        "meta_eccentricity": 0.00045664,
        "meta_inclination": 97.156,
        "meta_ra_of_asc_node": 45.5888,
        "meta_arg_of_pericenter": 332.2202,
        "meta_mean_anomaly": 27.8805,
        "meta_ephemeris_type": 0,
        "meta_classification_type": "U",
        "meta_norad_cat_id": 43585,
        "meta_element_set_no": 999,
        "meta_rev_at_epoch": 41078,
        "meta_bstar": 0.00034377871,
        "meta_mean_motion_dot": 0.00018565,
        "meta_mean_motion_ddot": 0,
        "tle_line1": "1 43585U 18063A   25342.61971424  .00018565  00000+0  34378-3 0  9995",
        "tle_line2": "2 43585  97.1560  45.5888 0004566 332.2202  27.8805 15.49044738410783"
      },
      "geometry": {
        "type": "Point",
        "coordinates": [
          -139.82983381189433,
          -38.704188980930546
        ]
      }
    },
    {
      "type": "Feature",
      "properties": {
        "norad_id": 43613,
        "name": "ICESAT-2",
        "group": "resource",
        "lat": -57.61697616740892,
        "lon": 56.557279231420715,
        "alt_km": 488.0159974914559,
        "timestamp": "2025-12-08T23:34:03.627248+00:00",
        "meta_object_name": "ICESAT-2",
        "meta_object_id": "2018-070A",
        "meta_epoch": "2025-12-08T14:40:24.715488",
        "meta_mean_motion": 15.28238837,
        "meta_eccentricity": 0.00020887,
        "meta_inclination": 92.0045,
        "meta_ra_of_asc_node": 239.6231,
        "meta_arg_of_pericenter": 159.3412,
        "meta_mean_anomaly": 200.7922,
        "meta_ephemeris_type": 0,
        "meta_classification_type": "U",
        "meta_norad_cat_id": 43613,
        "meta_element_set_no": 999,
        "meta_rev_at_epoch": 40335,
        "meta_bstar": 0.00061404714,
        "meta_mean_motion_dot": 0.00016903,
        "meta_mean_motion_ddot": 0,
        "tle_line1": "1 43613U 18070A   25342.61139717  .00016903  00000+0  61405-3 0  9991",
        "tle_line2": "2 43613  92.0045 239.6231 0002088 159.3412 200.7922 15.28238837403352"
      },
      "geometry": {
        "type": "Point",
        "coordinates": [
          56.557279231420715,
          -57.61697616740892
        ]
      }
    }
  ]
}